[{"OBJECT_NAME":"FENGYUN 3A","OBJECT_ID":"2008-026A","EPOCH":"2026-03-05T17:13:20.416224","MEAN_MOTION":14.19544924,"ECCENTRICITY":0.0009773,"INCLINATION":98.6793,"RA_OF_ASC_NODE":7.5396,"ARG_OF_PERICENTER":68.5046,"MEAN_ANOMALY":291.7172,"EPHEMERIS_TYPE":0,"CLASSIFICATION_TYPE":"U","NORAD_CAT_ID":32958,"ELEMENT_SET_NO":999,"REV_AT_EPOCH":92072,"BSTAR":9.7058e-5,"MEAN_MOTION_DOT":1.61e-6,"MEAN_MOTION_DDOT":0},{"OBJECT_NAME":"HUANJING 1A (HJ-1A)","OBJECT_ID":"2008-041A","EPOCH":"2026-03-05T18:59:16.517760","MEAN_MOTION":14.83705464,"ECCENTRICITY":0.0020568,"INCLINATION":97.6628,"RA_OF_ASC_NODE":54.6825,"ARG_OF_PERICENTER":115.6283,"MEAN_ANOMALY":244.7059,"EPHEMERIS_TYPE":0,"CLASSIFICATION_TYPE":"U","NORAD_CAT_ID":33320,"ELEMENT_SET_NO":999,"REV_AT_EPOCH":94307,"BSTAR":0.00036229,"MEAN_MOTION_DOT":2.955e-5,"MEAN_MOTION_DDOT":0},{"OBJECT_NAME":"HUANJING 1B (HJ-1B)","OBJECT_ID":"2008-041B","EPOCH":"2026-03-05T18:47:16.632096","MEAN_MOTION":14.83088945,"ECCENTRICITY":0.0036789,"INCLINATION":97.6472,"RA_OF_ASC_NODE":58.1482,"ARG_OF_PERICENTER":160.4737,"MEAN_ANOMALY":199.7896,"EPHEMERIS_TYPE":0,"CLASSIFICATION_TYPE":"U","NORAD_CAT_ID":33321,"ELEMENT_SET_NO":999,"REV_AT_EPOCH":94308,"BSTAR":0.00013726,"MEAN_MOTION_DOT":1.079e-5,"MEAN_MOTION_DDOT":0},{"OBJECT_NAME":"SHIJIAN-6 03A (SJ-6 03A)","OBJECT_ID":"2008-053A","EPOCH":"2026-03-05T17:28:24.814272","MEAN_MOTION":15.15994053,"ECCENTRICITY":0.0011966,"INCLINATION":97.8536,"RA_OF_ASC_NODE":94.4726,"ARG_OF_PERICENTER":16.9617,"MEAN_ANOMALY":343.2012,"EPHEMERIS_TYPE":0,"CLASSIFICATION_TYPE":"U","NORAD_CAT_ID":33408,"ELEMENT_SET_NO":999,"REV_AT_EPOCH":94728,"BSTAR":0.00037522,"MEAN_MOTION_DOT":7.148e-5,"MEAN_MOTION_DDOT":0},{"OBJECT_NAME":"SHIJIAN-6 03B (SJ-6 03B)","OBJECT_ID":"2008-053B","EPOCH":"2026-03-05T18:51:46.879200","MEAN_MOTION":15.03838006,"ECCENTRICITY":0.0020359,"INCLINATION":97.8663,"RA_OF_ASC_NODE":82.9489,"ARG_OF_PERICENTER":33.5621,"MEAN_ANOMALY":326.6889,"EPHEMERIS_TYPE":0,"CLASSIFICATION_TYPE":"U","NORAD_CAT_ID":33409,"ELEMENT_SET_NO":999,"REV_AT_EPOCH":94720,"BSTAR":0.0002648,"MEAN_MOTION_DOT":3.594e-5,"MEAN_MOTION_DDOT":0},{"OBJECT_NAME":"CHUANGXIN 1-02 (CX-1-02)","OBJECT_ID":"2008-056B","EPOCH":"2026-03-05T18:03:15.568992","MEAN_MOTION":14.30129318,"ECCENTRICITY":0.0015437,"INCLINATION":98.625,"RA_OF_ASC_NODE":91.9985,"ARG_OF_PERICENTER":84.661,"MEAN_ANOMALY":275.6333,"EPHEMERIS_TYPE":0,"CLASSIFICATION_TYPE":"U","NORAD_CAT_ID":33434,"ELEMENT_SET_NO":999,"REV_AT_EPOCH":90383,"BSTAR":4.1329e-5,"MEAN_MOTION_DOT":6.3e-7,"MEAN_MOTION_DDOT":0},{"OBJECT_NAME":"STARS (KUKAI)","OBJECT_ID":"2009-002G","EPOCH":"2026-03-05T16:51:08.579232","MEAN_MOTION":14.94885666,"ECCENTRICITY":0.0009255,"INCLINATION":98.1461,"RA_OF_ASC_NODE":7.9135,"ARG_OF_PERICENTER":143.3588,"MEAN_ANOMALY":216.8266,"EPHEMERIS_TYPE":0,"CLASSIFICATION_TYPE":"U","NORAD_CAT_ID":33498,"ELEMENT_SET_NO":999,"REV_AT_EPOCH":92301,"BSTAR":0.00062356,"MEAN_MOTION_DOT":6.745e-5,"MEAN_MOTION_DDOT":0},{"OBJECT_NAME":"KKS-1 (KISEKI)","OBJECT_ID":"2009-002H","EPOCH":"2026-03-05T18:04:59.183328","MEAN_MOTION":14.8281194,"ECCENTRICITY":0.0006426,"INCLINATION":98.1189,"RA_OF_ASC_NODE":345.5891,"ARG_OF_PERICENTER":266.4349,"MEAN_ANOMALY":93.6129,"EPHEMERIS_TYPE":0,"CLASSIFICATION_TYPE":"U","NORAD_CAT_ID":33499,"ELEMENT_SET_NO":999,"REV_AT_EPOCH":92086,"BSTAR":0.00031744,"MEAN_MOTION_DOT":2.513e-5,"MEAN_MOTION_DDOT":0},{"OBJECT_NAME":"NOAA 19","OBJECT_ID":"2009-005A","EPOCH":"2026-03-05T16:48:36.821952","MEAN_MOTION":14.13455946,"ECCENTRICITY":0.0013045,"INCLINATION":98.9614,"RA_OF_ASC_NODE":135.4647,"ARG_OF_PERICENTER":326.6281,"MEAN_ANOMALY":33.4067,"EPHEMERIS_TYPE":0,"CLASSIFICATION_TYPE":"U","NORAD_CAT_ID":33591,"ELEMENT_SET_NO":999,"REV_AT_EPOCH":87986,"BSTAR":6.511e-5,"MEAN_MOTION_DOT":7.7e-7,"MEAN_MOTION_DDOT":0},{"OBJECT_NAME":"UK-DMC 2","OBJECT_ID":"2009-041C","EPOCH":"2026-03-05T16:53:16.986048","MEAN_MOTION":14.75842383,"ECCENTRICITY":0.0001084,"INCLINATION":97.8647,"RA_OF_ASC_NODE":202.3144,"ARG_OF_PERICENTER":90.4256,"MEAN_ANOMALY":269.7078,"EPHEMERIS_TYPE":0,"CLASSIFICATION_TYPE":"U","NORAD_CAT_ID":35683,"ELEMENT_SET_NO":999,"REV_AT_EPOCH":89130,"BSTAR":0.00025668,"MEAN_MOTION_DOT":1.711e-5,"MEAN_MOTION_DDOT":0},{"OBJECT_NAME":"METEOR-M 1","OBJECT_ID":"2009-049A","EPOCH":"2026-03-05T15:42:16.843104","MEAN_MOTION":14.23129296,"ECCENTRICITY":0.0001234,"INCLINATION":98.7268,"RA_OF_ASC_NODE":27.9406,"ARG_OF_PERICENTER":233.591,"MEAN_ANOMALY":126.5154,"EPHEMERIS_TYPE":0,"CLASSIFICATION_TYPE":"U","NORAD_CAT_ID":35865,"ELEMENT_SET_NO":999,"REV_AT_EPOCH":85452,"BSTAR":9.5739e-5,"MEAN_MOTION_DOT":1.72e-6,"MEAN_MOTION_DDOT":0},{"OBJECT_NAME":"OCEANSAT-2","OBJECT_ID":"2009-051A","EPOCH":"2026-03-05T18:12:39.952800","MEAN_MOTION":13.99636288,"ECCENTRICITY":0.0017066,"INCLINATION":98.2273,"RA_OF_ASC_NODE":61.9663,"ARG_OF_PERICENTER":162.9543,"MEAN_ANOMALY":197.22,"EPHEMERIS_TYPE":0,"CLASSIFICATION_TYPE":"U","NORAD_CAT_ID":35931,"ELEMENT_SET_NO":999,"REV_AT_EPOCH":86486,"BSTAR":8.2917e-5,"MEAN_MOTION_DOT":8.4e-7,"MEAN_MOTION_DDOT":0},{"OBJECT_NAME":"SWISSCUBE","OBJECT_ID":"2009-051B","EPOCH":"2026-03-05T17:08:06.392832","MEAN_MOTION":14.62247075,"ECCENTRICITY":0.0006806,"INCLINATION":98.4101,"RA_OF_ASC_NODE":330.7863,"ARG_OF_PERICENTER":164.5501,"MEAN_ANOMALY":195.5909,"EPHEMERIS_TYPE":0,"CLASSIFICATION_TYPE":"U","NORAD_CAT_ID":35932,"ELEMENT_SET_NO":999,"REV_AT_EPOCH":87403,"BSTAR":0.00036858,"MEAN_MOTION_DOT":1.809e-5,"MEAN_MOTION_DDOT":0},{"OBJECT_NAME":"BEESAT-1","OBJECT_ID":"2009-051C","EPOCH":"2026-03-05T16:05:50.964864","MEAN_MOTION":14.61522598,"ECCENTRICITY":0.000503,"INCLINATION":98.4032,"RA_OF_ASC_NODE":330.5905,"ARG_OF_PERICENTER":175.5274,"MEAN_ANOMALY":184.5972,"EPHEMERIS_TYPE":0,"CLASSIFICATION_TYPE":"U","NORAD_CAT_ID":35933,"ELEMENT_SET_NO":999,"REV_AT_EPOCH":87406,"BSTAR":0.00031878,"MEAN_MOTION_DOT":1.533e-5,"MEAN_MOTION_DDOT":0},{"OBJECT_NAME":"ITUPSAT1","OBJECT_ID":"2009-051E","EPOCH":"2026-03-05T17:00:16.553952","MEAN_MOTION":14.60258403,"ECCENTRICITY":0.0006991,"INCLINATION":98.4119,"RA_OF_ASC_NODE":329.9276,"ARG_OF_PERICENTER":190.8794,"MEAN_ANOMALY":169.2255,"EPHEMERIS_TYPE":0,"CLASSIFICATION_TYPE":"U","NORAD_CAT_ID":35935,"ELEMENT_SET_NO":999,"REV_AT_EPOCH":87363,"BSTAR":0.00029735,"MEAN_MOTION_DOT":1.387e-5,"MEAN_MOTION_DDOT":0},{"OBJECT_NAME":"DMSP 5D-3 F18 (USA 210)","OBJECT_ID":"2009-057A","EPOCH":"2026-03-05T18:03:01.548864","MEAN_MOTION":14.14833056,"ECCENTRICITY":0.0010901,"INCLINATION":98.8958,"RA_OF_ASC_NODE":45.7948,"ARG_OF_PERICENTER":179.4396,"MEAN_ANOMALY":180.6791,"EPHEMERIS_TYPE":0,"CLASSIFICATION_TYPE":"U","NORAD_CAT_ID":35951,"ELEMENT_SET_NO":999,"REV_AT_EPOCH":84496,"BSTAR":0.00020685,"MEAN_MOTION_DOT":3.55e-6,"MEAN_MOTION_DDOT":0},{"OBJECT_NAME":"PROBA-2","OBJECT_ID":"2009-059B","EPOCH":"2026-03-05T17:32:35.185920","MEAN_MOTION":14.54788141,"ECCENTRICITY":0.0012172,"INCLINATION":98.2427,"RA_OF_ASC_NODE":249.5194,"ARG_OF_PERICENTER":237.4112,"MEAN_ANOMALY":122.591,"EPHEMERIS_TYPE":0,"CLASSIFICATION_TYPE":"U","NORAD_CAT_ID":36037,"ELEMENT_SET_NO":999,"REV_AT_EPOCH":86648,"BSTAR":0.00011549,"MEAN_MOTION_DOT":4.5e-6,"MEAN_MOTION_DDOT":0}]
